[{"OBJECT_NAME":"STARLINK-1376","OBJECT_ID":"2020-025AR","EPOCH":"2026-03-09T06:17:00.428064","MEAN_MOTION":15.29355327,"ECCENTRICITY":0.00013647,"INCLINATION":53.1611,"RA_OF_ASC_NODE":79.7883,"ARG_OF_PERICENTER":91.4272,"MEAN_ANOMALY":268.6885,"EPHEMERIS_TYPE":0,"CLASSIFICATION_TYPE":"U","NORAD_CAT_ID":45570,"ELEMENT_SET_NO":999,"REV_AT_EPOCH":32543,"BSTAR":2.286897e-6,"MEAN_MOTION_DOT":-2.9e-6,"MEAN_MOTION_DDOT":0},{"OBJECT_NAME":"CUBEBEL 2 (EU11S)","OBJECT_ID":"2023-091K","EPOCH":"2026-03-09T21:40:29.186112","MEAN_MOTION":15.26706784,"ECCENTRICITY":0.00118653,"INCLINATION":97.517,"RA_OF_ASC_NODE":131.3579,"ARG_OF_PERICENTER":105.889,"MEAN_ANOMALY":254.3657,"EPHEMERIS_TYPE":0,"CLASSIFICATION_TYPE":"U","NORAD_CAT_ID":57175,"ELEMENT_SET_NO":999,"REV_AT_EPOCH":14914,"BSTAR":0.00056688644,"MEAN_MOTION_DOT":0.00014859,"MEAN_MOTION_DDOT":0}]
